[{"OBJECT_NAME":"STARLINK-3256","OBJECT_ID":"2021-125AY","EPOCH":"2026-03-09T17:19:44.965344","MEAN_MOTION":15.08835467,"ECCENTRICITY":0.00011136,"INCLINATION":53.2159,"RA_OF_ASC_NODE":238.975,"ARG_OF_PERICENTER":98.6537,"MEAN_ANOMALY":261.4581,"EPHEMERIS_TYPE":0,"CLASSIFICATION_TYPE":"U","NORAD_CAT_ID":50202,"ELEMENT_SET_NO":999,"REV_AT_EPOCH":23673,"BSTAR":1.6752708e-5,"MEAN_MOTION_DOT":-2.1e-7,"MEAN_MOTION_DDOT":0},{"OBJECT_NAME":"QPS-SAR-7 (TSUKUYOMI-II)","OBJECT_ID":"2024-066F","EPOCH":"2026-03-09T22:44:25.024704","MEAN_MOTION":15.07520552,"ECCENTRICITY":3.06e-5,"INCLINATION":45.6053,"RA_OF_ASC_NODE":45.6252,"ARG_OF_PERICENTER":310.671,"MEAN_ANOMALY":49.4148,"EPHEMERIS_TYPE":0,"CLASSIFICATION_TYPE":"U","NORAD_CAT_ID":59447,"ELEMENT_SET_NO":999,"REV_AT_EPOCH":10524,"BSTAR":0.00063712098,"MEAN_MOTION_DOT":9.59e-5,"MEAN_MOTION_DDOT":0}]
